<?xml version="1.0" encoding="utf-8" ?>
<kml xmlns="http://www.opengis.net/kml/2.2">
<Document id="root_doc">
<Schema name="abanicos" id="abanicos">
	<SimpleField name="Id" type="float"></SimpleField>
</Schema>
<Folder><name>abanicos</name>
  <Placemark>
	<Style><LineStyle><color>ff0000ff</color></LineStyle><PolyStyle><fill>0</fill></PolyStyle></Style>
	<ExtendedData><SchemaData schemaUrl="#abanicos">
		<SimpleData name="Id">0</SimpleData>
	</SchemaData></ExtendedData>
      <MultiGeometry><Polygon><outerBoundaryIs><LinearRing><coordinates>-75.6237668403209,6.16431784935339 -75.6245462441043,6.16527226567157 -75.6247809027644,6.16567523542824 -75.625101719375,6.16622615208656 -75.6252066848209,6.16640640408865 -75.6256272128604,6.1672123775939 -75.6271543501121,6.16849348031505 -75.6291290348328,6.16959390097921 -75.6308352371772,6.17081467200262 -75.6314640933822,6.17135096948739 -75.6323620447782,6.17197616973398 -75.6337682473571,6.17274936660718 -75.634814778927,6.17310506364484 -75.6351147252946,6.17352871415318 -75.636011731617,6.17382505003878 -75.6357046177577,6.17504382707837 -75.6354333677861,6.17544642252929 -75.6352335138096,6.17574835473562 -75.6352402662447,6.17586394649174 -75.6352486038945,6.17600661195301 -75.6352030727781,6.17603083330302 -75.6351275976276,6.17607098326776 -75.6347504330118,6.17627161318297 -75.6347332216304,6.17628076802692 -75.6346622601616,6.17627431870423 -75.6345955500977,6.17626825692405 -75.634274277534,6.17623905677961 -75.6339296977313,6.17608221051993 -75.6335707863737,6.17592541142088 -75.6332693894878,6.17582583642236 -75.6328819262626,6.17571216924953 -75.6325663179228,6.17565568654269 -75.6320499364264,6.17558544283763 -75.6315763585413,6.17544332079117 -75.6308880848324,6.17543097663182 -75.6303726991941,6.17570512835884 -75.6298563592023,6.17564923147439 -75.6294686867085,6.17546380770372 -75.6290235334676,6.17523550212859 -75.6283196726399,6.17479269535784 -75.6279321246736,6.17465032056072 -75.6275162746354,6.1746371795915 -75.6270424497626,6.17440895493407 -75.6265250280136,6.17397995302242 -75.6260366561345,6.1736800193426 -75.6253191652738,6.17348120000758 -75.6248462944626,6.17358302083903 -75.6244018951775,6.1736130110323 -75.6235592415492,6.17310363018839 -75.6230808592365,6.17295194820874 -75.621093130684,6.17312990450945 -75.6199279499643,6.17347767533904 -75.6191060015183,6.1735183193072 -75.6185131332718,6.17344349573489 -75.6180155789123,6.17327273122577 -75.6173486695565,6.17403999885599 -75.6164903577256,6.17473128133547 -75.6156314383227,6.17521209760479 -75.6147346123794,6.17580782342536 -75.6139135389866,6.17615459292992 -75.6137262218289,6.17621246738266 -75.6132259053458,6.17636704185495 -75.612346485731,6.17636957433393 -75.6117056333155,6.17616170963516 -75.61129401949,6.17602819568641 -75.6103954276939,6.17601164735804 -75.609860733643,6.17622365207293 -75.609345156537,6.17643560240792 -75.6089635674502,6.1767045714249 -75.6083327901165,6.17674464918986 -75.6079690568993,6.17657349013538 -75.6075481367565,6.17645989458439 -75.6068224196643,6.17672793364435 -75.6056579812756,6.1773435492825 -75.6049712141891,6.17786212476867 -75.6040740407999,6.17834303595293 -75.603291134419,6.1786705471109 -75.6022039243503,6.17955380836265 -75.60168937774,6.1801292877394 -75.6009460684277,6.18093502819036 -75.6006039609271,6.18164395296957 -75.6008144729271,6.18171797247345 -75.6005865844367,6.18225436597807 -75.6003203527533,6.18275260375744 -75.5995477781182,6.18262752074248 -75.5986945460558,6.18248937571146 -75.5981393041034,6.18220395471935 -75.5973359055668,6.18205317740881 -75.5966684601179,6.18264822435384 -75.5960386483657,6.18303269598044 -75.5952368828994,6.18345592116616 -75.5942044871981,6.18339512214639 -75.5932667832415,6.18313625497798 -75.5920222536753,6.18248924815512 -75.5913524114793,6.18224241205984 -75.5902814689161,6.1821306519237 -75.5906806180391,6.18130676353898 -75.5913278705207,6.18032910456289 -75.5919750081929,6.17931317715522 -75.592798443879,6.1797891816231 -75.5934689343576,6.18026562058499 -75.5936185195369,6.17973999373888 -75.5950762374853,6.17972388851561 -75.5961040024192,6.17978075591517 -75.5965059042359,6.17885096404826 -75.5971024921414,6.17855029899519 -75.5976383986406,6.17792094603407 -75.5978160970565,6.17738230350695 -75.5979651172866,6.17726229379884 -75.5990091810685,6.17675107651845 -75.600112475658,6.17606031159328 -75.6012159374446,6.17542933746768 -75.6017809407743,6.17453083259443 -75.6022272239951,6.17390173227574 -75.6028243971789,6.17381033672761 -75.60360097394,6.17377822008004 -75.604255841854,6.17296914659211 -75.6048200567635,6.17225914154182 -75.6048291564758,6.17222349597636 -75.6048695869394,6.17219548579117 -75.6059346711463,6.17077845509405 -75.6065473079314,6.16994305909897 -75.6075026738931,6.16976094296642 -75.6080689462444,6.16931087480198 -75.6088428574681,6.16835197581336 -75.6094306433882,6.16752337684336 -75.6094378830768,6.16751317393362 -75.6104221718551,6.16700211162692 -75.6111669783285,6.1663123599762 -75.6117030261923,6.16574279349347 -75.6123282588354,6.16502348782738 -75.6131340884597,6.16478200222652 -75.6134613797455,6.16433261918163 -75.6135502877464,6.16408721473066 -75.6139971500305,6.16366738214964 -75.6148313018699,6.1628876823479 -75.6156063079858,6.16231742461531 -75.6167704922034,6.16204500805343 -75.6174566576382,6.16174406878649 -75.6191018396209,6.16253755435422 -75.6206878283357,6.16351955256627 -75.6221820546119,6.16375440410614 -75.623169365581,6.16410542760795 -75.6237668403209,6.16431784935339</coordinates></LinearRing></outerBoundaryIs></Polygon></MultiGeometry>
  </Placemark>
  <Placemark>
	<Style><LineStyle><color>ff0000ff</color></LineStyle><PolyStyle><fill>0</fill></PolyStyle></Style>
	<ExtendedData><SchemaData schemaUrl="#abanicos">
		<SimpleData name="Id">0</SimpleData>
	</SchemaData></ExtendedData>
      <MultiGeometry><Polygon><outerBoundaryIs><LinearRing><coordinates>-75.5822380614949,6.18430717623362 -75.5806224239645,6.18341483860771 -75.5798316742812,6.18266367031909 -75.5793000281781,6.18099574037544 -75.5792498778114,6.18015877450806 -75.5792469175436,6.17910641955191 -75.5792928988637,6.17846052134935 -75.5793876151869,6.17814932988947 -75.5795054881688,6.17757498153433 -75.5799585352365,6.17721494394642 -75.5800051866533,6.17680822060225 -75.5795728119707,6.17602016274103 -75.5788549423439,6.17568734295638 -75.5788297704018,6.17523298473586 -75.5783981343922,6.17470801694127 -75.5784443864988,6.17415778718895 -75.5785627983739,6.1737747784014 -75.578775860401,6.17305665594661 -75.5789179013781,6.17257791115782 -75.5788199282439,6.17172911852007 -75.5789382718202,6.17132219127791 -75.5789124276265,6.17062866138926 -75.5787914640292,6.17010282024416 -75.5781452957045,6.16976979361214 -75.5780965619231,6.16943508794686 -75.5783828875524,6.16927642806603 -75.5784530358924,6.1687261309813 -75.5784521634003,6.1684152075702 -75.5782597772823,6.16798523559052 -75.5784480701323,6.16695626132826 -75.5786619374084,6.16652514588354 -75.5788770793998,6.16654846063866 -75.5793308558871,6.16645151572128 -75.5797603335512,6.16621113381355 -75.5801649072834,6.16561206375104 -75.5803070812129,6.16518115078129 -75.580519803445,6.16434344556863 -75.5805880689008,6.16312347259399 -75.5815082104269,6.16211105980829 -75.5817736385565,6.16066621990057 -75.5831752358337,6.16195380711455 -75.5834075254304,6.16210083598231 -75.5839242585311,6.16242790173922 -75.5839760251236,6.16250840266762 -75.5839953957952,6.16251377918249 -75.5841746191022,6.16287001754105 -75.5843257186216,6.16317034939711 -75.5845012925671,6.16333537702603 -75.5846115362975,6.16343899671211 -75.5849726526358,6.16377841664728 -75.5859405821877,6.16381156031382 -75.5862996445202,6.1640258031482 -75.5869832349969,6.16492076944428 -75.5875206141649,6.16481162377395 -75.58773457427,6.16441638321083 -75.5879836711741,6.16376991506593 -75.5882341836368,6.16362570218461 -75.5886272680039,6.1631940808687 -75.5891629217293,6.16247504937863 -75.5902750375454,6.1627947858217 -75.5915664833463,6.16314988657475 -75.5925759284432,6.16392194618866 -75.5933665586703,6.16463721865451 -75.5930453735587,6.16514039405356 -75.5935490368815,6.1657847259951 -75.5937655327415,6.16628637349062 -75.5927625689097,6.16654035019004 -75.5926570649089,6.16725816570484 -75.5929448454057,6.16761610597252 -75.5925164262292,6.16822721138061 -75.5921219205071,6.16815657917676 -75.5917622449611,6.16772708866522 -75.5911168218508,6.16765716656766 -75.5902576419759,6.1680542342537 -75.5899006060951,6.16855750851368 -75.5893997805416,6.16891768471532 -75.5909416523129,6.16909269570835 -75.5919458405934,6.1692692273393 -75.5917326960211,6.16995147453594 -75.5912323795801,6.17049103163573 -75.5904091438014,6.17092387246165 -75.5898731811303,6.17153528206179 -75.5897687875087,6.17264772875145 -75.5897704118051,6.17322173704576 -75.5895213563579,6.17388255784637 -75.589380307573,6.17470810481242 -75.5884146936147,6.17550010728711 -75.5883808741519,6.17621772108129 -75.5883831066432,6.17700698336827 -75.5878827795056,6.17754653963176 -75.5878121014439,6.17790549872597 -75.588244085744,6.17855004089405 -75.587743352664,6.17894609230876 -75.5874932390063,6.17923380844862 -75.5872795805383,6.17973667653774 -75.5872100154043,6.18049026452169 -75.5867104962682,6.18131682654437 -75.5859956965863,6.18207224303096 -75.5848156920164,6.18311598320372 -75.584101692013,6.18415840616557 -75.5822380614949,6.18430717623362</coordinates></LinearRing></outerBoundaryIs></Polygon></MultiGeometry>
  </Placemark>
  <Placemark>
	<Style><LineStyle><color>ff0000ff</color></LineStyle><PolyStyle><fill>0</fill></PolyStyle></Style>
	<ExtendedData><SchemaData schemaUrl="#abanicos">
		<SimpleData name="Id">0</SimpleData>
	</SchemaData></ExtendedData>
      <MultiGeometry><Polygon><outerBoundaryIs><LinearRing><coordinates>-75.5613488737115,6.25455740876539 -75.559279442657,6.25301337996184 -75.5572100278592,6.25146934003497 -75.5561758864981,6.25089822217469 -75.5554277579294,6.25003928751523 -75.5550808497701,6.24906442351811 -75.5550773140002,6.247801586796 -75.5557041283721,6.24630737607561 -75.5548532003486,6.24543676917882 -75.5544127261668,6.24518926143148 -75.553991051114,6.24482689600977 -75.5548939927165,6.2437839561343 -75.5554676120412,6.24378235122188 -75.5571878349787,6.24354792149772 -75.5579909026581,6.24354566661219 -75.559137658822,6.24337024568336 -75.5597101571859,6.24296682147364 -75.5613742964772,6.24319175615014 -75.5633835773034,6.24376011913565 -75.5650459414643,6.24335362532578 -75.5673399296688,6.24317494882719 -75.5677435682023,6.24392003182216 -75.5690069856025,6.24443307905084 -75.5688381404461,6.24558159181801 -75.5693566665016,6.24638374819203 -75.5685589445817,6.24828026362121 -75.5683894529623,6.24919916881582 -75.568276023041,6.24965870578842 -75.5686808029825,6.25080559388124 -75.5680517621404,6.25149619444035 -75.5672522475743,6.25276129270868 -75.5672575959905,6.25465553775612 -75.5668029054689,6.25614926852139 -75.5653132428304,6.25678490036687 -75.5647396102611,6.25678652102882 -75.563704158272,6.255756209931 -75.5625557617302,6.25535763529651 -75.5613488737115,6.25455740876539</coordinates></LinearRing></outerBoundaryIs></Polygon></MultiGeometry>
  </Placemark>
  <Placemark>
	<Style><LineStyle><color>ff0000ff</color></LineStyle><PolyStyle><fill>0</fill></PolyStyle></Style>
	<ExtendedData><SchemaData schemaUrl="#abanicos">
		<SimpleData name="Id">0</SimpleData>
	</SchemaData></ExtendedData>
      <MultiGeometry><Polygon><outerBoundaryIs><LinearRing><coordinates>-76.3672231107342,5.28150179177619 -76.3737971057978,5.28566124611493 -76.3797683028683,5.28802980697464 -76.3815702837269,5.29160915729229 -76.3845536955014,5.29219572606429 -76.3863313286187,5.28920074057284 -76.3893014120911,5.28620131245294 -76.3940712556078,5.28618351061908 -76.3970657543348,5.28975832320273 -76.3988611338899,5.29154460113971 -76.4012460619245,5.29153565904758 -76.4054085026945,5.28853170856924 -76.4077889358977,5.28732743641448 -76.411951306539,5.28432346791598 -76.4173105466182,5.28251029656886 -76.4191059284701,5.28429649978159 -76.4191238997338,5.28907770100336 -76.4167479942843,5.29147731212265 -76.413778086766,5.29447682436292 -76.4161854824457,5.3004443319739 -76.4156049972433,5.30463014600618 -76.4096426051171,5.30465267764329 -76.4001116696629,5.30707924050578 -76.3953461514262,5.3082924789257 -76.3989348314334,5.31126733206032 -76.3953729628649,5.3154643967176 -76.3977759017029,5.32023669722639 -76.3906296921053,5.32265424721468 -76.385864016774,5.3238674721001 -76.3804998100433,5.32448523328409 -76.3769332862009,5.3274869424681 -76.3733445287323,5.32451195744636 -76.3733312230588,5.32092594391585 -76.3751111641653,5.31852860225037 -76.3786776684486,5.31552692135633 -76.3792539597572,5.31014569656777 -76.3792428727126,5.30715736305822 -76.3774386050164,5.30298035382009 -76.3738566660558,5.30179831653174 -76.3655046984702,5.30063391934523 -76.3601296099541,5.29826305099331 -76.3493860558002,5.29531415901119 -76.3452209697624,5.29772018808023 -76.3440480682526,5.30310369203187 -76.3362878882843,5.30074132752022 -76.3344817239477,5.29596637392195 -76.3332675290715,5.28999385915851 -76.3410058357216,5.28637949385825 -76.3463764457206,5.28755524308799 -76.3523367579915,5.28693571362578 -76.3624510228307,5.28092169735888 -76.3672231107342,5.28150179177619</coordinates></LinearRing></outerBoundaryIs></Polygon></MultiGeometry>
  </Placemark>
  <Placemark>
	<Style><LineStyle><color>ff0000ff</color></LineStyle><PolyStyle><fill>0</fill></PolyStyle></Style>
	<ExtendedData><SchemaData schemaUrl="#abanicos">
		<SimpleData name="Id">0</SimpleData>
	</SchemaData></ExtendedData>
      <MultiGeometry><Polygon><outerBoundaryIs><LinearRing><coordinates>-76.3623728332872,6.22195427896354 -76.3614007670548,6.2181334203599 -76.3766769108427,6.21519839121701 -76.3867120002514,6.21563276815027 -76.3924451179374,6.215607687316 -76.4015057169534,6.21174296367575 -76.4067672906693,6.21315416939084 -76.4091665760896,6.21553418042916 -76.4159100760085,6.22793537590652 -76.4168910199788,6.23366840031988 -76.4216793001881,6.23603768705671 -76.430287615192,6.23791175049491 -76.4417668149525,6.24072897750393 -76.4465487504111,6.24166368704727 -76.4446527287581,6.24501895259361 -76.4365392225871,6.24696783069917 -76.4241170920098,6.24702340771284 -76.4155192123627,6.24753981787651 -76.4092953599982,6.24469875278887 -76.4021012375695,6.23851504007782 -76.3963510965726,6.23471542190503 -76.3877218335073,6.22805958816613 -76.3762427851286,6.22524097105562 -76.3623728332872,6.22195427896354</coordinates></LinearRing></outerBoundaryIs></Polygon></MultiGeometry>
  </Placemark>
  <Placemark>
	<Style><LineStyle><color>ff0000ff</color></LineStyle><PolyStyle><fill>0</fill></PolyStyle></Style>
	<ExtendedData><SchemaData schemaUrl="#abanicos">
		<SimpleData name="Id">0</SimpleData>
	</SchemaData></ExtendedData>
      <MultiGeometry><Polygon><outerBoundaryIs><LinearRing><coordinates>-76.5563465999871,6.27414457940151 -76.5546654250609,6.2722402701657 -76.5572885442534,6.27127172669682 -76.5599014712768,6.26815193159684 -76.562753241231,6.26503100328966 -76.5668163227281,6.26548979238705 -76.568727291763,6.26548071622611 -76.5722989948146,6.26307343269016 -76.5749242802946,6.26258288005427 -76.5756431593643,6.26305751601666 -76.5770809207435,6.2640067834078 -76.5775586581649,6.2640045062088 -76.5778180193827,6.26830579361078 -76.577590538664,6.27069717002391 -76.577606491934,6.27404350123172 -76.5756966436986,6.27429164611973 -76.5711648580827,6.27574743007464 -76.5671039736442,6.27576675896606 -76.5644752016027,6.27554022312332 -76.5606531750618,6.27555836648179 -76.5563465999871,6.27414457940151</coordinates></LinearRing></outerBoundaryIs></Polygon></MultiGeometry>
  </Placemark>
  <Placemark>
	<Style><LineStyle><color>ff0000ff</color></LineStyle><PolyStyle><fill>0</fill></PolyStyle></Style>
	<ExtendedData><SchemaData schemaUrl="#abanicos">
		<SimpleData name="Id">0</SimpleData>
	</SchemaData></ExtendedData>
      <MultiGeometry><Polygon><outerBoundaryIs><LinearRing><coordinates>-76.5672051952166,6.29704002320614 -76.5695837876097,6.29487739406549 -76.5729133262158,6.29175409808669 -76.5762508182022,6.2903039624966 -76.5784030308193,6.29077171893612 -76.580080915329,6.29195882384134 -76.5827143307468,6.29314133578996 -76.5844059922661,6.29719668617586 -76.5844151711185,6.29910886355371 -76.5829921935609,6.30126695253106 -76.5789357299717,6.30224254433078 -76.5765434359124,6.30153693072717 -76.5731933143422,6.30035782952539 -76.5707976032913,6.29893510904251 -76.5672051952166,6.29704002320614</coordinates></LinearRing></outerBoundaryIs></Polygon></MultiGeometry>
  </Placemark>
  <Placemark>
	<Style><LineStyle><color>ff0000ff</color></LineStyle><PolyStyle><fill>0</fill></PolyStyle></Style>
	<ExtendedData><SchemaData schemaUrl="#abanicos">
		<SimpleData name="Id">0</SimpleData>
	</SchemaData></ExtendedData>
      <MultiGeometry><Polygon><outerBoundaryIs><LinearRing><coordinates>-76.5754463911466,6.32185966925785 -76.5763881995058,6.31898679426243 -76.5773403314859,6.31826513104683 -76.579718925791,6.31610243554691 -76.581616271495,6.31322496860472 -76.5871095873292,6.3129594801217 -76.5904574912921,6.3136604048576 -76.5945220619077,6.31435783810985 -76.5966882446098,6.31769370969539 -76.5971845383123,6.32151570903524 -76.5964887006704,6.32582153781093 -76.5950715462838,6.32917476660635 -76.5938816995592,6.33013663858761 -76.58934035867,6.32968058238569 -76.586704415916,6.32802014163074 -76.5845405162345,6.32516226505272 -76.5811925249889,6.324461328572 -76.5761757072122,6.32448548215284 -76.5754463911466,6.32185966925785</coordinates></LinearRing></outerBoundaryIs></Polygon></MultiGeometry>
  </Placemark>
  <Placemark>
	<Style><LineStyle><color>ff0000ff</color></LineStyle><PolyStyle><fill>0</fill></PolyStyle></Style>
	<ExtendedData><SchemaData schemaUrl="#abanicos">
		<SimpleData name="Id">0</SimpleData>
	</SchemaData></ExtendedData>
      <MultiGeometry><Polygon><outerBoundaryIs><LinearRing><coordinates>-76.5811802479146,6.38120660165044 -76.5804119837525,6.38044544733453 -76.58211456962,6.3768039523281 -76.5817165187011,6.3735551115245 -76.5815059046222,6.36954046974468 -76.5845528909319,6.36723101094616 -76.5866432657851,6.36473497331121 -76.5885350627935,6.36071013088323 -76.5902329271076,6.35611257229006 -76.5929068407678,6.35571712744508 -76.5974994507876,6.35684208143148 -76.6005705207723,6.35950417276059 -76.6034579690762,6.36369688346126 -76.6053823408112,6.36636452821761 -76.6063585816261,6.37056655449408 -76.6065637654106,6.37343382625753 -76.6054329085352,6.37669008950788 -76.6033454394547,6.37975982868163 -76.602030922305,6.38454675102225 -76.5970744837769,6.38724811533591 -76.5919193685045,6.38842065890798 -76.587327374799,6.38748697880665 -76.5834952865909,6.38559344188589 -76.5811802479146,6.38120660165044</coordinates></LinearRing></outerBoundaryIs></Polygon></MultiGeometry>
  </Placemark>
  <Placemark>
	<Style><LineStyle><color>ff0000ff</color></LineStyle><PolyStyle><fill>0</fill></PolyStyle></Style>
	<ExtendedData><SchemaData schemaUrl="#abanicos">
		<SimpleData name="Id">0</SimpleData>
	</SchemaData></ExtendedData>
      <MultiGeometry><Polygon><outerBoundaryIs><LinearRing><coordinates>-76.5891110725994,6.41219357122602 -76.5900527631106,6.40932064554057 -76.5900305335187,6.40477926299999 -76.5912053030588,6.40071007238145 -76.5926318569366,6.39926893327391 -76.5942961597081,6.39758760316899 -76.5957121626145,6.39399528931977 -76.5985757455505,6.39326417726067 -76.6021631225915,6.39396364086066 -76.6062306973611,6.3951387589072 -76.6093590670427,6.39966478098372 -76.6110562977738,6.40467587407851 -76.6127417705986,6.40729678843688 -76.6134786367734,6.41135651306007 -76.6110987823026,6.41328045812579 -76.6077737975374,6.41736027145922 -76.6041933228935,6.41809501949731 -76.6008376412117,6.41596035242449 -76.595099683043,6.41527151254864 -76.5891110725994,6.41219357122602</coordinates></LinearRing></outerBoundaryIs></Polygon></MultiGeometry>
  </Placemark>
  <Placemark>
	<Style><LineStyle><color>ff0000ff</color></LineStyle><PolyStyle><fill>0</fill></PolyStyle></Style>
	<ExtendedData><SchemaData schemaUrl="#abanicos">
		<SimpleData name="Id">0</SimpleData>
	</SchemaData></ExtendedData>
      <MultiGeometry><Polygon><outerBoundaryIs><LinearRing><coordinates>-76.6004186498202,6.42791361056911 -76.6032670518982,6.42407517374537 -76.6049313549867,6.4223937926506 -76.6075549308441,6.42142473726199 -76.6106634546374,6.42188740469397 -76.6133059456035,6.42474257606225 -76.6159520247553,6.42831476730403 -76.6164429502932,6.43094155970738 -76.61502948826,6.43501193979023 -76.6133699521798,6.43764941828826 -76.6105121265089,6.4395757813171 -76.6069303361401,6.44007159071241 -76.6035768339072,6.43841503888911 -76.6014180670512,6.43675255214208 -76.600208008008,6.43365122249145 -76.5975654981799,6.43079597362205 -76.6004186498202,6.42791361056911</coordinates></LinearRing></outerBoundaryIs></Polygon></MultiGeometry>
  </Placemark>
  <Placemark>
	<Style><LineStyle><color>ff0000ff</color></LineStyle><PolyStyle><fill>0</fill></PolyStyle></Style>
	<ExtendedData><SchemaData schemaUrl="#abanicos">
		<SimpleData name="Id">0</SimpleData>
	</SchemaData></ExtendedData>
      <MultiGeometry><Polygon><outerBoundaryIs><LinearRing><coordinates>-75.8277988422802,5.03439051507271 -75.8295762582324,5.03020056944879 -75.8343290317034,5.02391003856002 -75.8390857327384,5.01911418732568 -75.8468321259082,5.01759855097685 -75.8518980640999,5.01698693209795 -75.856661841967,5.01488141989876 -75.8584552370247,5.01667014874506 -75.8587654915941,5.02115333831995 -75.8581839163358,5.02653576921364 -75.8558170142621,5.03311882433507 -75.8543411378745,5.03850370702692 -75.8516768998173,5.04538652363777 -75.8492904471917,5.04479516430432 -75.8454061968447,5.04151743366217 -75.8418176661209,5.03734204895038 -75.839719684305,5.03316259508785 -75.8373340791277,5.03287010899031 -75.8310763650613,5.03378381323733 -75.8277988422802,5.03439051507271</coordinates></LinearRing></outerBoundaryIs></Polygon></MultiGeometry>
  </Placemark>
  <Placemark>
	<Style><LineStyle><color>ff0000ff</color></LineStyle><PolyStyle><fill>0</fill></PolyStyle></Style>
	<ExtendedData><SchemaData schemaUrl="#abanicos">
		<SimpleData name="Id">0</SimpleData>
	</SchemaData></ExtendedData>
      <MultiGeometry><Polygon><outerBoundaryIs><LinearRing><coordinates>-75.8273165959245,5.07684135087362 -75.8302913563237,5.07444176184454 -75.8356534692961,5.07293249139565 -75.839221976115,5.06963444697577 -75.8421958385287,5.0669358935877 -75.8460632026227,5.06393595605708 -75.8505300063916,5.0621301130815 -75.8508370790467,5.06541757466077 -75.8502530782533,5.06990322526278 -75.8475855179587,5.07559033990811 -75.8470080347421,5.08246747599156 -75.8443412435263,5.08845353830695 -75.841664637227,5.0908523785285 -75.8380781786771,5.08757387446105 -75.8362796886873,5.0839915225943 -75.83209785995,5.08101352470399 -75.8273165959245,5.07684135087362</coordinates></LinearRing></outerBoundaryIs></Polygon></MultiGeometry>
  </Placemark>
  <Placemark>
	<Style><LineStyle><color>ff0000ff</color></LineStyle><PolyStyle><fill>0</fill></PolyStyle></Style>
	<ExtendedData><SchemaData schemaUrl="#abanicos">
		<SimpleData name="Id">0</SimpleData>
	</SchemaData></ExtendedData>
      <MultiGeometry><Polygon><outerBoundaryIs><LinearRing><coordinates>-76.1054257617479,6.27360480363541 -76.102093212681,6.2731632030989 -76.1075306983922,6.26980922096985 -76.1102441312512,6.26676876524688 -76.1129569467533,6.26357681090336 -76.1146011602294,6.25811655306115 -76.117160758919,6.25447070394807 -76.1200231095894,6.2508236769643 -76.1215282023705,6.24854538699833 -76.1210540474525,6.24339636520924 -76.1210287997982,6.23688213297551 -76.124045971526,6.2341434959668 -76.1258837845698,6.2395901984392 -76.128626448658,6.24412438240995 -76.128794946619,6.24851708928524 -76.1289610968923,6.25230382271081 -76.1311024569278,6.25790077568397 -76.1294454161091,6.26002818657401 -76.1267256491539,6.26140227085795 -76.1250609039554,6.26156026464382 -76.1224895579066,6.26217627480782 -76.1190139524389,6.26385626653016 -76.1138794220168,6.26720914892599 -76.1111648405676,6.26994662828703 -76.1090517197885,6.27162129114441 -76.1054257617479,6.27360480363541</coordinates></LinearRing></outerBoundaryIs></Polygon></MultiGeometry>
  </Placemark>
  <Placemark>
	<Style><LineStyle><color>ff0000ff</color></LineStyle><PolyStyle><fill>0</fill></PolyStyle></Style>
	<ExtendedData><SchemaData schemaUrl="#abanicos">
		<SimpleData name="Id">0</SimpleData>
	</SchemaData></ExtendedData>
      <MultiGeometry><Polygon><outerBoundaryIs><LinearRing><coordinates>-76.1376659654,6.23287847462114 -76.1390503283658,6.23847835499564 -76.1407262467023,6.24119868810919 -76.1398410494294,6.2471104335912 -76.137739391221,6.25166350394228 -76.1354892794405,6.25697463186177 -76.1348896396387,6.25849192825952 -76.1332243218806,6.25849845165389 -76.1311024569278,6.25790077568397 -76.1297971092849,6.25448896192998 -76.1289610968923,6.25230382271081 -76.128794946619,6.24851708928524 -76.1310616618463,6.24744777627353 -76.1331616090796,6.24244024069819 -76.1337547525529,6.23925653159651 -76.1351113247729,6.23773628522123 -76.1357009150448,6.23364362454101 -76.1376659654,6.23287847462114</coordinates></LinearRing></outerBoundaryIs></Polygon></MultiGeometry>
  </Placemark>
  <Placemark>
	<Style><LineStyle><color>ff0000ff</color></LineStyle><PolyStyle><fill>0</fill></PolyStyle></Style>
	<ExtendedData><SchemaData schemaUrl="#abanicos">
		<SimpleData name="Id">0</SimpleData>
	</SchemaData></ExtendedData>
      <MultiGeometry><Polygon><outerBoundaryIs><LinearRing><coordinates>-76.0773369953921,6.39946959572481 -76.0765930028055,6.39253833676014 -76.0778675620697,6.38933792898469 -76.0796739280151,6.38716485281251 -76.0793887127549,6.38215729456778 -76.0774872747688,6.37856694035781 -76.0734381402407,6.37610322260984 -76.0734219573244,6.37605211069413 -76.0748476461819,6.37389460572218 -76.0760306219746,6.37078160440973 -76.0752978994278,6.36671958580668 -76.0755239570697,6.36337118210978 -76.0769449950635,6.36001815673469 -76.0810023524232,6.35856779175084 -76.0819462881382,6.35545572360683 -76.0845761292757,6.35568463153778 -76.0865047753625,6.35998108070356 -76.087958261522,6.36499668434181 -76.0879750089155,6.36930055232318 -76.0853683486569,6.37504928697606 -76.0839501526052,6.37911964234391 -76.0830127447415,6.38390545178498 -76.0811230234961,6.38965140648057 -76.0794750811795,6.39611374956133 -76.0773369953921,6.39946959572481</coordinates></LinearRing></outerBoundaryIs></Polygon></MultiGeometry>
  </Placemark>
  <Placemark>
	<Style><LineStyle><color>ff0000ff</color></LineStyle><PolyStyle><fill>0</fill></PolyStyle></Style>
	<ExtendedData><SchemaData schemaUrl="#abanicos">
		<SimpleData name="Id">0</SimpleData>
	</SchemaData></ExtendedData>
      <MultiGeometry><Polygon><outerBoundaryIs><LinearRing><coordinates>-76.486884880705,6.48751321280709 -76.488092663768,6.48675017937716 -76.4884106381925,6.48992927900579 -76.4885808046596,6.4938663690333 -76.4887480988326,6.49719764063522 -76.4911940295917,6.50203261381694 -76.4909027412198,6.50445732251662 -76.4904650881037,6.50794293283761 -76.4897187911409,6.510218359557 -76.4883689388667,6.51295104326249 -76.4891427340616,6.51643086969388 -76.4903621521417,6.51809107000966 -76.4927952121108,6.52019982368727 -76.494771089167,6.52170492334228 -76.4943342193709,6.52534198393404 -76.4917605717816,6.52550578073558 -76.4902368063857,6.52354413498384 -76.4897687379887,6.52066868485912 -76.4864234722017,6.51780698181716 -76.4842904175426,6.51509092007125 -76.4844295735897,6.51251546964837 -76.4844093658185,6.50827474039501 -76.4843920555729,6.50463982899163 -76.4828604804375,6.50101212248645 -76.4808746551486,6.49738656095116 -76.481763076795,6.49314150411442 -76.4841743668075,6.49070671629301 -76.486884880705,6.48751321280709</coordinates></LinearRing></outerBoundaryIs></Polygon></MultiGeometry>
  </Placemark>
  <Placemark>
	<Style><LineStyle><color>ff0000ff</color></LineStyle><PolyStyle><fill>0</fill></PolyStyle></Style>
	<ExtendedData><SchemaData schemaUrl="#abanicos">
		<SimpleData name="Id">0</SimpleData>
	</SchemaData></ExtendedData>
      <MultiGeometry><Polygon><outerBoundaryIs><LinearRing><coordinates>-76.2351997272714,6.79681650705441 -76.2364180438848,6.80183179146975 -76.237391871328,6.80565274896008 -76.2383571636988,6.80756108659258 -76.2400400218454,6.80946620901862 -76.236689284078,6.80900302968958 -76.2343038338216,6.81044817382488 -76.2331132380261,6.81164889785195 -76.2314367901351,6.81117821103895 -76.2323775336614,6.80758778192491 -76.2342760729418,6.80423216622412 -76.2344917843333,6.79897140017331 -76.2351997272714,6.79681650705441</coordinates></LinearRing></outerBoundaryIs></Polygon></MultiGeometry>
  </Placemark>
  <Placemark>
	<Style><LineStyle><color>ff0000ff</color></LineStyle><PolyStyle><fill>0</fill></PolyStyle></Style>
	<ExtendedData><SchemaData schemaUrl="#abanicos">
		<SimpleData name="Id">0</SimpleData>
	</SchemaData></ExtendedData>
      <MultiGeometry><Polygon><outerBoundaryIs><LinearRing><coordinates>-76.4149258071148,7.1506543762755 -76.4185230577064,7.15207040349357 -76.4210634682289,7.15743608621764 -76.4243274618647,7.16387376046838 -76.4243366371865,7.16566657711469 -76.423285316387,7.17069196469232 -76.4272785609487,7.1792772771715 -76.4294658286163,7.1857203504231 -76.4294990451003,7.19217445961787 -76.4295156648184,7.19540151347795 -76.4295378363443,7.19970425119284 -76.4317308792448,7.20722294861131 -76.4295988781804,7.21153677539602 -76.4238690248602,7.21443482253613 -76.4167065812152,7.21805731283711 -76.409161060322,7.21702019932177 -76.4037533437093,7.2127448662934 -76.3951033799,7.20633441530308 -76.3914838323015,7.20061546736882 -76.3875126095392,7.19633256140361 -76.3821071308921,7.19241539912083 -76.377773423619,7.18741701236292 -76.375962034159,7.18419884123442 -76.3763012434638,7.18025271258985 -76.3788072223727,7.17880581249402 -76.383102884584,7.1762741671738 -76.3870232009158,7.1705171476804 -76.3898609710797,7.16368982733929 -76.3937720808674,7.15613995240533 -76.3991516974691,7.15503710923859 -76.4063208130772,7.15284943036905 -76.4149258071148,7.1506543762755</coordinates></LinearRing></outerBoundaryIs></Polygon></MultiGeometry>
  </Placemark>
  <Placemark>
	<Style><LineStyle><color>ff0000ff</color></LineStyle><PolyStyle><fill>0</fill></PolyStyle></Style>
	<ExtendedData><SchemaData schemaUrl="#abanicos">
		<SimpleData name="Id">0</SimpleData>
	</SchemaData></ExtendedData>
      <MultiGeometry><Polygon><outerBoundaryIs><LinearRing><coordinates>-75.8128524025249,6.53552249035863 -75.8090325056913,6.53725748152819 -75.8049814332903,6.5378333971454 -75.8020858749995,6.53708315800002 -75.8020858759996,6.53541660400005 -75.8045806909995,6.52874994500009 -75.8045806909995,6.52291679400002 -75.8062515259995,6.51625013600009 -75.8087463409995,6.51291656100006 -75.8162536689995,6.51374960200009 -75.8199997029995,6.51333331900002 -75.8217808119773,6.51750815550797 -75.8214075022872,6.52018783542679 -75.8212314321322,6.52458865534169 -75.8218185321005,6.52841289261541 -75.8220263853959,6.53319500756496 -75.8222243050517,6.5351074550572 -75.8249169763918,6.53930699917415 -75.8268411998259,6.54255262763847 -75.8285754919618,6.54618152910232 -75.8324983701995,6.5494605056435 -75.8377773995681,6.55470309784572 -75.8449695087531,6.55993886338061 -75.8406720526072,6.56186710884156 -75.8320585984485,6.56046249521346 -75.8248715630134,6.55666134014854 -75.821704199124,6.55060563860167 -75.8193900740976,6.54525689404612 -75.8151597839815,6.53895818001799 -75.8143886716567,6.53723901681257 -75.8128524025249,6.53552249035863</coordinates></LinearRing></outerBoundaryIs></Polygon></MultiGeometry>
  </Placemark>
  <Placemark>
	<Style><LineStyle><color>ff0000ff</color></LineStyle><PolyStyle><fill>0</fill></PolyStyle></Style>
	<ExtendedData><SchemaData schemaUrl="#abanicos">
		<SimpleData name="Id">0</SimpleData>
	</SchemaData></ExtendedData>
      <MultiGeometry><Polygon><outerBoundaryIs><LinearRing><coordinates>-75.5206948068895,7.64139509478108 -75.5156955482139,7.651815489102 -75.5146564570783,7.66365766213484 -75.5139769765298,7.67549863563886 -75.5129246452998,7.68339462130015 -75.5086345071709,7.69094267146813 -75.5039800073443,7.69711670889387 -75.5078920072857,7.7018869971667 -75.5097142715374,7.70905588528478 -75.5091180019999,7.71808629500003 -75.5018273549999,7.71962116800004 -75.4947622153468,7.71897129597581 -75.4860647878638,7.71720627661437 -75.4878442029111,7.71152017348626 -75.4878155063159,7.70285042728529 -75.4883921518737,7.69597244742272 -75.4907659231571,7.68878959412994 -75.4946429886451,7.68309658074028 -75.4973262149395,7.67890229074235 -75.4975991037455,7.67082949000291 -75.5008795930551,7.66603530573359 -75.5029693112571,7.66363672100016 -75.5029543991618,7.65915238948682 -75.5053327937165,7.65346430219868 -75.5074134733528,7.64837511527397 -75.5118923175415,7.64357692220401 -75.5169693558778,7.63847774950651 -75.5202373939193,7.63009605384233 -75.5208507127387,7.6342794027752 -75.522668664466,7.6402524583595 -75.5206948068895,7.64139509478108</coordinates></LinearRing></outerBoundaryIs></Polygon></MultiGeometry>
  </Placemark>
  <Placemark>
	<Style><LineStyle><color>ff0000ff</color></LineStyle><PolyStyle><fill>0</fill></PolyStyle></Style>
	<ExtendedData><SchemaData schemaUrl="#abanicos">
		<SimpleData name="Id">0</SimpleData>
	</SchemaData></ExtendedData>
      <MultiGeometry><Polygon><outerBoundaryIs><LinearRing><coordinates>-75.7246753792483,6.4464176690188 -75.7315509268101,6.4469933013824 -75.735141037252,6.44817740994722 -75.7375396391953,6.45056113374115 -75.7318827575194,6.4571562430555 -75.7271136054302,6.46105796606141 -75.7226384089025,6.46346399665805 -75.7181699120085,6.46796258156349 -75.7139963564019,6.47126441961141 -75.7101110516353,6.47127691837704 -75.7053243418221,6.46979754904791 -75.7088992689644,6.46619874718921 -75.7127797334684,6.46469156103675 -75.7160499334542,6.45930004561505 -75.7187262070072,6.45510621357091 -75.7178171249971,6.45122287299716 -75.7169090244114,6.44763846759984 -75.7246753792483,6.4464176690188</coordinates></LinearRing></outerBoundaryIs></Polygon></MultiGeometry>
  </Placemark>
  <Placemark>
	<Style><LineStyle><color>ff0000ff</color></LineStyle><PolyStyle><fill>0</fill></PolyStyle></Style>
	<ExtendedData><SchemaData schemaUrl="#abanicos">
		<SimpleData name="Id">0</SimpleData>
	</SchemaData></ExtendedData>
      <MultiGeometry><Polygon><outerBoundaryIs><LinearRing><coordinates>-75.7081799863212,5.12973201801088 -75.7110461319202,5.12760319828938 -75.7131558237533,5.12517323600004 -75.7141868039008,5.12648023935216 -75.7147063778091,5.13180604462456 -75.7137008398212,5.13434535362083 -75.7129515339894,5.13815237306328 -75.7139771494714,5.14347687849069 -75.7137286800669,5.14525322845335 -75.7091790859889,5.1470406136902 -75.7091881411026,5.15059202186136 -75.7099568814602,5.15439515354479 -75.7102137798855,5.15591653498335 -75.7092095103431,5.15896319663744 -75.7076998557917,5.16226483087042 -75.7051833078561,5.16759844195278 -75.7039324695192,5.17318248211634 -75.7034367975651,5.17724254131856 -75.7026861604943,5.18054223391064 -75.6988953587667,5.18232768208237 -75.6958616646835,5.18335015152124 -75.6920688832253,5.1843745482044 -75.6877693891435,5.18514654072179 -75.6822041034137,5.18566804513592 -75.6786623710278,5.18593070328678 -75.6761321007369,5.18593710759976 -75.6730900397886,5.18366169310985 -75.6687847721251,5.18215047094671 -75.6659970420407,5.18038172641839 -75.6634585576432,5.17709026580462 -75.6642125746397,5.17505894462548 -75.6644567498974,5.17150682690496 -75.6636901046894,5.16846459646139 -75.6629291467225,5.16770546150338 -75.6636806405639,5.16465943296014 -75.667218497271,5.16287483019327 -75.6679737619151,5.16135086669875 -75.6694868120798,5.15931764779146 -75.6704931880418,5.15703201984816 -75.6720005281996,5.15271571057451 -75.6732611698682,5.15093680285468 -75.6743444206149,5.14960256317208 -75.6769445755973,5.14966246031401 -75.6790594080086,5.14920252888752 -75.6817765172691,5.14783184778637 -75.6825246197177,5.14479920965722 -75.6865970020929,5.14145511540172 -75.6920356780449,5.14053214296572 -75.6943035042551,5.14082947009224 -75.6967213189257,5.1406717977117 -75.7001886513433,5.13717764634416 -75.702296113737,5.13383848600732 -75.7056141677294,5.13110238523193 -75.7081799863212,5.12973201801088</coordinates></LinearRing></outerBoundaryIs></Polygon></MultiGeometry>
  </Placemark>
  <Placemark>
	<Style><LineStyle><color>ff0000ff</color></LineStyle><PolyStyle><fill>0</fill></PolyStyle></Style>
	<ExtendedData><SchemaData schemaUrl="#abanicos">
		<SimpleData name="Id">0</SimpleData>
	</SchemaData></ExtendedData>
      <MultiGeometry><Polygon><outerBoundaryIs><LinearRing><coordinates>-75.7061520355364,5.21174740092013 -75.7060639713868,5.21312530901364 -75.7020797809997,5.21458340100006 -75.6987533549997,5.21708346100008 -75.6951952646045,5.2184723601277 -75.6928132688679,5.21991349487779 -75.6868484640032,5.21968964001869 -75.6818367048261,5.21898495580924 -75.6832589926809,5.21539379137376 -75.6868265301698,5.21107963828388 -75.6901615555613,5.2091577543431 -75.6930175999706,5.20651958532493 -75.6954193069997,5.20041656300004 -75.698960219127,5.19813346614725 -75.6999071088285,5.19526102823988 -75.704919875106,5.19644395063192 -75.7061194197828,5.19907168249839 -75.7063647414536,5.20170187586394 -75.7073257482084,5.20433021687171 -75.7118534416199,5.20240516175902 -75.713526440446,5.20359664639541 -75.7111451708999,5.20527698456736 -75.7087638872816,5.20695731762167 -75.7059042350503,5.20816055121185 -75.705668135971,5.20911782647425 -75.7061520355364,5.21174740092013</coordinates></LinearRing></outerBoundaryIs></Polygon></MultiGeometry>
  </Placemark>
  <Placemark>
	<Style><LineStyle><color>ff0000ff</color></LineStyle><PolyStyle><fill>0</fill></PolyStyle></Style>
	<ExtendedData><SchemaData schemaUrl="#abanicos">
		<SimpleData name="Id">0</SimpleData>
	</SchemaData></ExtendedData>
      <MultiGeometry><Polygon><outerBoundaryIs><LinearRing><coordinates>-75.5505358869086,5.74885754025925 -75.5493847608156,5.74694707225057 -75.5489992525852,5.74560865961531 -75.5489904122529,5.74216449524694 -75.5495585998742,5.74024959529405 -75.5501213848773,5.73622992909963 -75.5501145146652,5.73355113510904 -75.5510593580534,5.72953048749836 -75.5510480790936,5.72512961235885 -75.5519983096404,5.72321373316224 -75.5560157595877,5.72549950863343 -75.555445629838,5.72664903858233 -75.5564096260069,5.73009072945736 -75.5568005507564,5.73353389655169 -75.5560457954956,5.73717136694763 -75.5541497715164,5.74272522014031 -75.5530094852305,5.74502428569437 -75.5505358869086,5.74885754025925</coordinates></LinearRing></outerBoundaryIs></Polygon></MultiGeometry>
  </Placemark>
  <Placemark>
	<Style><LineStyle><color>ff0000ff</color></LineStyle><PolyStyle><fill>0</fill></PolyStyle></Style>
	<ExtendedData><SchemaData schemaUrl="#abanicos">
		<SimpleData name="Id">0</SimpleData>
	</SchemaData></ExtendedData>
      <MultiGeometry><Polygon><outerBoundaryIs><LinearRing><coordinates>-75.5559026655928,6.3411916849997 -75.5556134578109,6.34036735491234 -75.5525175660528,6.34031813960948 -75.5495030551049,6.33946567825545 -75.5474925718204,6.33861035202583 -75.5447732002257,6.33645166587929 -75.5435866583405,6.33530696749722 -75.542867987712,6.33477084694705 -75.5427591023218,6.33430476030819 -75.5442272487864,6.33358309585008 -75.5460903309565,6.33303969673048 -75.5483477387012,6.33245930089761 -75.5493494190253,6.33163131446729 -75.5497436484302,6.33155844671299 -75.5509273494399,6.33169860296346 -75.5516437880623,6.33144544026512 -75.5525034524594,6.33112011928923 -75.5530063699003,6.33144158015221 -75.5534742430025,6.33205014924094 -75.5554852099454,6.33308485266638 -75.5564202127992,6.33403650252135 -75.5568891125475,6.33500382714328 -75.5569288425504,6.33636700856059 -75.5563934235692,6.33722955881122 -75.5566840573518,6.33855615123126 -75.5573671924104,6.33919997760714 -75.5578355892579,6.33998791973765 -75.5593804413709,6.34102392651434 -75.5603515716812,6.34206156338819 -75.5608542997161,6.34231126140155 -75.5627209644091,6.34302345178167 -75.5638695489746,6.34341480403384 -75.5652324626394,6.34351853066329 -75.5658880381367,6.34329780966019 -75.5672133454087,6.34279174769259 -75.56825312278,6.34275288953459 -75.5710536303776,6.34256492061443 -75.5727759066733,6.3429426300338 -75.5733540456026,6.34447166341349 -75.5732620118288,6.34571562432892 -75.5718968953993,6.34628218025724 -75.5706080638998,6.34700340648581 -75.5688870165512,6.34747593604419 -75.5673774744924,6.3462604856285 -75.5661001824428,6.34600584060941 -75.5645588961219,6.34622551264094 -75.5640563672375,6.34604757096404 -75.562871610683,6.34554869597927 -75.5621877439023,6.34465374950413 -75.5616140130768,6.34465538865249 -75.5605726939527,6.34415609717242 -75.5600688386381,6.34351176491814 -75.5592065067343,6.34290433155902 -75.5582025821064,6.3429430686639 -75.5571974317877,6.34255129495127 -75.5566578260658,6.34194293596422 -75.5559026655928,6.3411916849997</coordinates></LinearRing></outerBoundaryIs></Polygon></MultiGeometry>
  </Placemark>
  <Placemark>
	<Style><LineStyle><color>ff0000ff</color></LineStyle><PolyStyle><fill>0</fill></PolyStyle></Style>
	<ExtendedData><SchemaData schemaUrl="#abanicos">
		<SimpleData name="Id">0</SimpleData>
	</SchemaData></ExtendedData>
      <MultiGeometry><Polygon><outerBoundaryIs><LinearRing><coordinates>-75.3976423838616,6.42021794773574 -75.3955190801966,6.41931411425748 -75.393847550175,6.41734825614465 -75.3927824074231,6.41553238458992 -75.3956542162806,6.41294864906318 -75.3979266466356,6.41294280161207 -75.4012611047759,6.41354040348822 -75.4021763384247,6.41596283989649 -75.4017281131695,6.41838879905683 -75.3999124984055,6.41930279008258 -75.3976423838616,6.42021794773574</coordinates></LinearRing></outerBoundaryIs></Polygon></MultiGeometry>
  </Placemark>
  <Placemark>
	<Style><LineStyle><color>ff0000ff</color></LineStyle><PolyStyle><fill>0</fill></PolyStyle></Style>
	<ExtendedData><SchemaData schemaUrl="#abanicos">
		<SimpleData name="Id">0</SimpleData>
	</SchemaData></ExtendedData>
      <MultiGeometry><Polygon><outerBoundaryIs><LinearRing><coordinates>-75.3897641155584,6.42008664458949 -75.3885505813942,6.41948354932691 -75.3876400450023,6.41887967571594 -75.3864241939036,6.41736727450212 -75.3853590742534,6.4155513821643 -75.3844462315571,6.41403819996726 -75.3858073801552,6.41312542174252 -75.3879260020284,6.41221070557979 -75.3908036425535,6.4119002418652 -75.3927750244707,6.41265294216776 -75.3939532253736,6.4144790167499 -75.3927824074231,6.41553238458992 -75.393847550175,6.41734825614465 -75.3911237121688,6.41856765240588 -75.3897641155584,6.42008664458949</coordinates></LinearRing></outerBoundaryIs></Polygon></MultiGeometry>
  </Placemark>
  <Placemark>
	<Style><LineStyle><color>ff0000ff</color></LineStyle><PolyStyle><fill>0</fill></PolyStyle></Style>
	<ExtendedData><SchemaData schemaUrl="#abanicos">
		<SimpleData name="Id">0</SimpleData>
	</SchemaData></ExtendedData>
      <MultiGeometry><Polygon><outerBoundaryIs><LinearRing><coordinates>-75.3248987414451,6.43073246067909 -75.3277723598475,6.43244764990466 -75.3319404048155,6.4354512970746 -75.3351006592561,6.43702221428206 -75.3361067283652,6.43773732059912 -75.3349649568581,6.44017991983089 -75.3331051034293,6.44233725150905 -75.332244615749,6.44248288458646 -75.33052011713,6.44133898425058 -75.330229651318,6.4399045258333 -75.3293638918096,6.43789740859502 -75.3276373094011,6.43589239548013 -75.3260531611667,6.4334564736663 -75.3238958459104,6.43130897642114 -75.3248987414451,6.43073246067909</coordinates></LinearRing></outerBoundaryIs></Polygon></MultiGeometry>
  </Placemark>
  <Placemark>
	<Style><LineStyle><color>ff0000ff</color></LineStyle><PolyStyle><fill>0</fill></PolyStyle></Style>
	<ExtendedData><SchemaData schemaUrl="#abanicos">
		<SimpleData name="Id">0</SimpleData>
	</SchemaData></ExtendedData>
      <MultiGeometry><Polygon><outerBoundaryIs><LinearRing><coordinates>-75.287649109947,6.49187108762335 -75.2856196310548,6.49187593161513 -75.2825757491954,6.49108881848804 -75.2810827716619,6.49080531659358 -75.2793606177539,6.49069457526878 -75.2790998482778,6.49073727615383 -75.2779455819759,6.49092628509474 -75.2775600987279,6.49079140202448 -75.2773453605431,6.49090530140056 -75.2768289834074,6.4911494034853 -75.2767122624241,6.49090211396835 -75.2766593977152,6.49081521579516 -75.2765258316789,6.49109850768512 -75.2763001931657,6.49130764424375 -75.2761699058888,6.49144870681735 -75.2760759783079,6.49153568467902 -75.2760593876071,6.49158826465576 -75.2759764124291,6.49162109464604 -75.2739682177135,6.4919128659565 -75.273951052279,6.49191885431275 -75.2724771274964,6.49243304711954 -75.2724061637733,6.49243479135083 -75.2713379676473,6.49246104555545 -75.2710609588951,6.49246785353064 -75.2705671649154,6.49247998900789 -75.2704421631635,6.49248306097391 -75.2698944212132,6.49249652157985 -75.2697941687952,6.4924819067474 -75.2694377892357,6.49242995343889 -75.2691205260768,6.49238370232603 -75.2684702872159,6.49228890883674 -75.2683441782918,6.49227052425082 -75.2680435545944,6.49211106347597 -75.2679541559905,6.49206364343461 -75.2676933977971,6.49192532832223 -75.2674821558675,6.49181327817225 -75.2677177474264,6.49133922969259 -75.2678283900558,6.49111659847568 -75.2679391767204,6.49089367725885 -75.2680942152091,6.49052949507848 -75.2678921988163,6.49059200818178 -75.2682801439889,6.48811539277348 -75.2685491962025,6.4877698636351 -75.2709871273624,6.48463893698143 -75.2733692388874,6.48234480066441 -75.2733717214167,6.48232712292885 -75.2738865244726,6.4815796075347 -75.274631042483,6.48088896055831 -75.2750888531044,6.48031380385461 -75.2756047333053,6.48002554991499 -75.2756981639887,6.48013715666612 -75.2766004024685,6.47951358631224 -75.2786244481783,6.4781146831616 -75.2799462829491,6.47731714063435 -75.2804769285445,6.47731588775864 -75.281508945146,6.47685418605643 -75.2824264417577,6.47650756865936 -75.2831720255684,6.47627617283382 -75.2836299577934,6.47575841851331 -75.2843760835991,6.47575665082061 -75.284660880367,6.47483745051073 -75.2854631742794,6.4743188787889 -75.286150814852,6.47385798514985 -75.2868403602055,6.47420079600022 -75.2873578604716,6.4746014223219 -75.2871320980084,6.47620937681165 -75.2869635943731,6.47775978834999 -75.2869675471015,6.47942460502476 -75.2869706816717,6.4807449771363 -75.2863420649104,6.48189462695663 -75.2858853572906,6.48292905142093 -75.2855441205013,6.48425024196203 -75.2855483443202,6.48602987424265 -75.2854942207314,6.48740779066594 -75.2856096933806,6.48769455483965 -75.2864144593661,6.48820931249517 -75.2876778462483,6.48849334625385 -75.2901469528273,6.48894672553084 -75.2945251268441,6.4870706567676 -75.2960598042235,6.48878919446986 -75.2907065594041,6.49033290591252 -75.287649109947,6.49187108762335</coordinates></LinearRing></outerBoundaryIs></Polygon></MultiGeometry>
  </Placemark>
  <Placemark>
	<Style><LineStyle><color>ff0000ff</color></LineStyle><PolyStyle><fill>0</fill></PolyStyle></Style>
	<ExtendedData><SchemaData schemaUrl="#abanicos">
		<SimpleData name="Id">0</SimpleData>
	</SchemaData></ExtendedData>
      <MultiGeometry><Polygon><outerBoundaryIs><LinearRing><coordinates>-75.2604206164262,6.57323644944119 -75.2606597006899,6.57518208568749 -75.258077970049,6.57644409214948 -75.2566308307779,6.57680667811933 -75.2531033378874,6.57753215876883 -75.2494844734454,6.57644845199006 -75.2460872344946,6.57601718852148 -75.2432061184227,6.57352147418237 -75.2382253148365,6.57119088013827 -75.2349667507778,6.56757074225553 -75.229127001972,6.56677891415465 -75.2242404596965,6.56252947696703 -75.2257235607445,6.56195431126949 -75.2302638914838,6.56173259858176 -75.2329838689864,6.56305975389996 -75.2360957169339,6.56334254699936 -75.2387799428919,6.56563267363576 -75.2412697288596,6.5665837034253 -75.244335360049,6.56829882274534 -75.2470183055182,6.57001481356634 -75.2506575827762,6.57153718542594 -75.2562086039726,6.5722895862534 -75.2604206164262,6.57323644944119</coordinates></LinearRing></outerBoundaryIs></Polygon></MultiGeometry>
  </Placemark>
  <Placemark>
	<Style><LineStyle><color>ff0000ff</color></LineStyle><PolyStyle><fill>0</fill></PolyStyle></Style>
	<ExtendedData><SchemaData schemaUrl="#abanicos">
		<SimpleData name="Id">0</SimpleData>
	</SchemaData></ExtendedData>
      <MultiGeometry><Polygon><outerBoundaryIs><LinearRing><coordinates>-75.0540766715526,6.90892600674244 -75.0536060253292,6.91287398283227 -75.0524025397029,6.90964707313093 -75.0513160676448,6.905104246926 -75.0499929395799,6.90187756947111 -75.0474710504913,6.89769646961917 -75.0460278063451,6.89423080419241 -75.0450628274402,6.89052494916263 -75.0430234021155,6.88813693660598 -75.0413425562517,6.88550897570445 -75.0389422071527,6.88216481035666 -75.0371417282941,6.87953706841666 -75.0366591725561,6.87762432118449 -75.0339024973818,6.87559651307533 -75.0318653427279,6.8742848967534 -75.0307841899546,6.87225372430221 -75.0291015713965,6.86866884569455 -75.0270620876363,6.86616113193939 -75.0249041329468,6.86425167853057 -75.0288512897167,6.86316739798793 -75.0311239284233,6.86256484832828 -75.0343515702953,6.86076431176025 -75.036506666984,6.86123843866514 -75.0375904474318,6.86458527315035 -75.038434413684,6.86769336913229 -75.0402329208897,6.86936425990404 -75.0388001667878,6.87104163559332 -75.0390440869505,6.87331368130255 -75.0395280886334,6.87594406532238 -75.0409688039656,6.87821370197754 -75.041930576098,6.88036469076805 -75.0434909976842,6.88263407467343 -75.0448125591359,6.88514314815942 -75.045534519438,6.88705539635493 -75.0476953335312,6.89028039788742 -75.049137842238,6.89338724031962 -75.0511809843698,6.89756930998704 -75.0521467650157,6.90163396097868 -75.0537117275391,6.90605619999162 -75.0540766715526,6.90892600674244</coordinates></LinearRing></outerBoundaryIs></Polygon></MultiGeometry>
  </Placemark>
  <Placemark>
	<Style><LineStyle><color>ff0000ff</color></LineStyle><PolyStyle><fill>0</fill></PolyStyle></Style>
	<ExtendedData><SchemaData schemaUrl="#abanicos">
		<SimpleData name="Id">0</SimpleData>
	</SchemaData></ExtendedData>
      <MultiGeometry><Polygon><outerBoundaryIs><LinearRing><coordinates>-74.8575721917386,5.31221414887029 -74.8546535729252,5.31778423755731 -74.8468059154776,5.32024617266646 -74.8384043867742,5.32025660018604 -74.8282838775219,5.31988622423161 -74.8225527809232,5.31759646435596 -74.8173934086795,5.31434899497547 -74.8126148377725,5.31014405542251 -74.8074566985854,5.30785345221327 -74.8043955848519,5.30268943434488 -74.8089749915515,5.3000045274206 -74.8196680238809,5.30037458050402 -74.8303661446743,5.30495507546999 -74.8383924059521,5.31049561992446 -74.8475608910933,5.31316373909166 -74.8553842030662,5.30894332031386 -74.8614896796372,5.30529917142808 -74.867212232201,5.30088989786666 -74.8748455231756,5.29762646836268 -74.8778995033588,5.29685696569321 -74.8779019662809,5.29877086637788 -74.8748501863229,5.30126288219206 -74.8721819698357,5.30509412784706 -74.865323834253,5.30801763001852 -74.8575721917386,5.31221414887029</coordinates></LinearRing></outerBoundaryIs></Polygon></MultiGeometry>
  </Placemark>
  <Placemark>
	<Style><LineStyle><color>ff0000ff</color></LineStyle><PolyStyle><fill>0</fill></PolyStyle></Style>
	<ExtendedData><SchemaData schemaUrl="#abanicos">
		<SimpleData name="Id">0</SimpleData>
	</SchemaData></ExtendedData>
      <MultiGeometry><Polygon><outerBoundaryIs><LinearRing><coordinates>-74.7388173285214,5.41208796393607 -74.7340487161996,5.41747615245883 -74.725997223332,5.42256878463708 -74.7173434114174,5.42257799923449 -74.7027171132394,5.41840648616076 -74.6961503438454,5.41661888424179 -74.6913734339668,5.41423127913805 -74.6886802850064,5.40675754092776 -74.6880792887262,5.40257132670974 -74.6886736904927,5.40017826050593 -74.6913538607265,5.39479250655129 -74.6928434278184,5.39239853398877 -74.6886599282922,5.38642157864239 -74.6883567606041,5.38163694347632 -74.6949234302592,5.3837237355062 -74.7005931386459,5.38401702169341 -74.7104402974259,5.38430592867218 -74.7173085632033,5.38938272408398 -74.7182125193972,5.39775536730836 -74.7206056711864,5.40343491731208 -74.7232960052305,5.40791790920391 -74.7265819101251,5.41120402121153 -74.7310588927722,5.41209637920536 -74.7388173285214,5.41208796393607</coordinates></LinearRing></outerBoundaryIs></Polygon></MultiGeometry>
  </Placemark>
  <Placemark>
	<Style><LineStyle><color>ff0000ff</color></LineStyle><PolyStyle><fill>0</fill></PolyStyle></Style>
	<ExtendedData><SchemaData schemaUrl="#abanicos">
		<SimpleData name="Id">0</SimpleData>
	</SchemaData></ExtendedData>
      <MultiGeometry><Polygon><outerBoundaryIs><LinearRing><coordinates>-74.7446610520246,5.46180841756539 -74.7372635024982,5.46492676183446 -74.7308208409074,5.46804398478061 -74.7262903854673,5.4733122813033 -74.7222386306878,5.47977626026365 -74.7179462567062,5.48456576443681 -74.7115025142713,5.48696507974183 -74.7052982172904,5.49008181600279 -74.6976642906959,5.49607092919926 -74.6928965412455,5.50325323893576 -74.6804875632867,5.50972556964253 -74.6742804576895,5.51044956202893 -74.6721230323589,5.50183883864188 -74.6704450864292,5.49514159759629 -74.6678114625459,5.48772754968389 -74.6666094815976,5.47935508572434 -74.663749696,5.47458314300011 -74.6699449237725,5.47217438339697 -74.6771071137564,5.47192801659198 -74.6854651976696,5.47383357109064 -74.6959671385657,5.47095187533218 -74.7038402830196,5.4656803002926 -74.7059854844925,5.46232862024862 -74.7081311633819,5.45945542538578 -74.7138614492018,5.45992787503119 -74.7250832880037,5.46087286457749 -74.7329606880998,5.45990734443907 -74.7432254428834,5.45893908418512 -74.7525341203803,5.45701475329078 -74.7563558091018,5.45868515268201 -74.7496729945527,5.46036736874232 -74.7446610520246,5.46180841756539</coordinates></LinearRing></outerBoundaryIs></Polygon></MultiGeometry>
  </Placemark>
  <Placemark>
	<Style><LineStyle><color>ff0000ff</color></LineStyle><PolyStyle><fill>0</fill></PolyStyle></Style>
	<ExtendedData><SchemaData schemaUrl="#abanicos">
		<SimpleData name="Id">0</SimpleData>
	</SchemaData></ExtendedData>
      <MultiGeometry><Polygon><outerBoundaryIs><LinearRing><coordinates>-75.7774863601078,6.51003702150702 -75.7701969634206,6.50959765056833 -75.7666068631442,6.50856339191884 -75.7631667115641,6.50767807197054 -75.756593750763,6.50844729970617 -75.7524148089901,6.5101053294952 -75.7488336082049,6.51176135357916 -75.746709120545,6.51253117525364 -75.7464013442183,6.50984174236546 -75.7430997923718,6.50566748706802 -75.7386008023887,6.50089924952103 -75.7424862780469,6.50088647501802 -75.7472723373654,6.50206645415724 -75.7529550550493,6.5032434119823 -75.7616275972043,6.5047092848395 -75.7708989161302,6.5064719252828 -75.7774863601078,6.51003702150702</coordinates></LinearRing></outerBoundaryIs></Polygon></MultiGeometry>
  </Placemark>
</Folder>
</Document></kml>
